     2.10           GLONASS NAV DATA                        RINEX VERSION / TYPE
GS10 V12.00                             2023 11 30 23:59    PGM / RUN BY / DATE 
  2023    12     1    6.053596735001D-09                    CORR TO SYSTEM TIME 
    18                                                      LEAP SECONDS        
                                                            END OF HEADER       
 5 23 12 01 01 45  0.0 1.231078058481D-04 9.094947017729D-13 5.400000000000D+03
   -3.894529785156D+03-3.120321273804D+00 1.862645149231D-09 0.000000000000D+00
    1.020109667969D+04-4.822168350220D-01-0.000000000000D+00 1.000000000000D+00
    2.305770556641D+04-3.166055679321D-01-1.862645149231D-09 0.000000000000D+00
23 23 12 01 01 45  0.0-1.042848452926D-04-9.094947017729D-13 6.330000000000D+03
   -2.278873046875D+03 3.910245895386D-01 9.313225746155D-10 0.000000000000D+00
   -2.221337255859D+04 1.658047676086D+00 9.313225746155D-10 3.000000000000D+00
    1.233148339844D+04 3.058846473694D+00-9.313225746155D-10 0.000000000000D+00
14 23 12 01 01 45  0.0 2.564303576946D-05 0.000000000000D+00 7.080000000000D+03
   -1.488683056641D+04 1.761795043945D+00 0.000000000000D+00 0.000000000000D+00
    2.990453613281D+03-2.182791709900D+00-0.000000000000D+00-7.000000000000D+00
    2.050899267578D+04 1.596156120300D+00-2.793967723846D-09 0.000000000000D+00
23 23 12 01 02 15  0.0-1.042867079377D-04-9.094947017729D-13 7.200000000000D+03
   -1.077928710938D+03 9.592666625977D-01 1.862645149231D-09 0.000000000000D+00
   -1.872412597656D+04 2.174325942993D+00 9.313225746155D-10 3.000000000000D+00
    1.728956250000D+04 2.414370536804D+00-9.313225746155D-10 0.000000000000D+00
 7 23 12 01 02 15  0.0 7.033720612526D-05 9.094947017729D-13 7.200000000000D+03
    2.460914501953D+04-8.168287277222D-01 3.725290298462D-09 0.000000000000D+00
    3.256927734375D+03-1.907138824463D-01-0.000000000000D+00 5.000000000000D+00
    6.033833984375D+03 3.449136734009D+00 2.793967723846D-09 0.000000000000D+00
14 23 12 01 02 15  0.0 2.564303576946D-05 0.000000000000D+00 7.200000000000D+03
   -1.185355468750D+04 1.570802688599D+00 9.313225746155D-10 0.000000000000D+00
   -1.392696289063D+03-2.654395103455D+00 0.000000000000D+00-7.000000000000D+00
    2.255315771484D+04 6.603879928589D-01-2.793967723846D-09 0.000000000000D+00
 6 23 12 01 02 15  0.0-1.399377360940D-04-9.094947017729D-13 7.200000000000D+03
    1.345086718750D+04-2.691417694092D+00 3.725290298462D-09 0.000000000000D+00
    9.171662597656D+03-4.706001281738D-02-9.313225746155D-10-4.000000000000D+00
    1.963213232422D+04 1.862058639526D+00 0.000000000000D+00 0.000000000000D+00
22 23 12 01 02 15  0.0 9.609479457140D-05 1.818989403546D-12 7.200000000000D+03
    1.039074902344D+04 1.409408569336D+00 3.725290298462D-09 0.000000000000D+00
   -3.558800292969D+03 2.814994812012D+00 0.000000000000D+00-3.000000000000D+00
    2.305445117188D+04-2.000780105591D-01-0.000000000000D+00 0.000000000000D+00
12 23 12 01 02 15  0.0 3.399979323149D-05 9.094947017729D-13 7.200000000000D+03
    1.089493554688D+04 1.770086288452D-01 1.862645149231D-09 0.000000000000D+00
   -2.264959423828D+04-5.958681106567D-01 9.313225746155D-10-1.000000000000D+00
    4.429467773438D+03-3.496875762939D+00 9.313225746155D-10 0.000000000000D+00
21 23 12 01 02 15  0.0-5.750544369221D-05-2.728484105319D-12 7.200000000000D+03
    1.512509960938D+04 1.193485260010D+00 3.725290298462D-09 0.000000000000D+00
    1.270139746094D+04 1.868956565857D+00-9.313225746155D-10 4.000000000000D+00
    1.613178222656D+04-2.594318389893D+00 9.313225746155D-10 0.000000000000D+00
13 23 12 01 02 15  0.0-4.185363650322D-05-0.000000000000D+00 7.200000000000D+03
    6.130263671875D+02 1.135561943054D+00 1.862645149231D-09 0.000000000000D+00
   -1.823731591797D+04-2.163553237915D+00 9.313225746155D-10-2.000000000000D+00
    1.780892041016D+04-2.251799583435D+00-9.313225746155D-10 0.000000000000D+00
 5 23 12 01 02 15  0.0 1.231087371707D-04 9.094947017729D-13 7.200000000000D+03
   -9.413181640625D+03-2.959785461426D+00 9.313225746155D-10 0.000000000000D+00
    9.761633300781D+03-1.069736480713D-02-0.000000000000D+00 1.000000000000D+00
    2.160426806641D+04-1.287943840027D+00-2.793967723846D-09 0.000000000000D+00
 8 23 12 01 02 15  0.0-7.348414510489D-05-0.000000000000D+00 7.890000000000D+03
    2.297073437500D+04 1.404685974121D+00 1.862645149231D-09 0.000000000000D+00
   -4.388792968750D+03-1.373815536499D-01 0.000000000000D+00 6.000000000000D+00
   -1.018000195313D+04 3.207893371582D+00 3.725290298462D-09 0.000000000000D+00
23 23 12 01 02 45  0.0-1.042895019054D-04-9.094947017729D-13 9.000000000000D+03
    1.198863769531D+03 1.567761421204D+00 2.793967723846D-09 0.000000000000D+00
   -1.455906884766D+04 2.403388977051D+00 0.000000000000D+00 3.000000000000D+00
    2.091097021484D+04 1.583302497864D+00-0.000000000000D+00 0.000000000000D+00
 7 23 12 01 02 45  0.0 7.034000009298D-05 9.094947017729D-13 9.000000000000D+03
    2.238434228516D+04-1.632996559143D+00 3.725290298462D-09 0.000000000000D+00
    3.078146972656D+03 2.890300750732D-02-9.313225746155D-10 5.000000000000D+00
    1.193024658203D+04 3.060131072998D+00 1.862645149231D-09 0.000000000000D+00
14 23 12 01 02 45  0.0 2.564396709204D-05 0.000000000000D+00 9.000000000000D+03
   -9.345554687500D+03 1.191463470459D+00 1.862645149231D-09 0.000000000000D+00
   -6.423074218750D+03-2.890020370483D+00 0.000000000000D+00-7.000000000000D+00
    2.285559765625D+04-3.265666961670D-01-1.862645149231D-09 0.000000000000D+00
22 23 12 01 02 45  0.0 9.609851986170D-05 1.818989403546D-12 9.000000000000D+03
    1.322753955078D+04 1.710191726685D+00 4.656612873077D-09 0.000000000000D+00
    1.205475097656D+03 2.438787460327D+00-9.313225746155D-10-3.000000000000D+00
    2.181089550781D+04-1.172719001770D+00 0.000000000000D+00 0.000000000000D+00
 6 23 12 01 02 45  0.0-1.399423927069D-04-9.094947017729D-13 9.000000000000D+03
    8.271735839844D+03-3.014611244202D+00 2.793967723846D-09 0.000000000000D+00
    9.474971191406D+03 3.965129852295D-01-9.313225746155D-10-4.000000000000D+00
    2.218115673828D+04 9.517087936401D-01-0.000000000000D+00 0.000000000000D+00
12 23 12 01 02 45  0.0 3.400072455406D-05 9.094947017729D-13 9.000000000000D+03
    1.080157226563D+04-2.458019256592D-01 9.313225746155D-10 0.000000000000D+00
   -2.303415185547D+04 1.893978118896D-01 9.313225746155D-10-1.000000000000D+00
   -1.954710937500D+03-3.550648689270D+00 1.862645149231D-09 0.000000000000D+00
21 23 12 01 02 45  0.0-5.751475691795D-05-2.728484105319D-12 9.000000000000D+03
    1.717482861328D+04 1.038328170776D+00 2.793967723846D-09 0.000000000000D+00
    1.537462890625D+04 1.093003273010D+00-1.862645149231D-09 4.000000000000D+00
    1.089817382813D+04-3.183057785034D+00 9.313225746155D-10 0.000000000000D+00
13 23 12 01 02 45  0.0-4.185736179352D-05-0.000000000000D+00 9.000000000000D+03
    2.139693359375D+03 5.720577239990D-01 1.862645149231D-09 0.000000000000D+00
   -2.176355419922D+04-1.709963798523D+00 9.313225746155D-10-2.000000000000D+00
    1.311890917969D+04-2.925415992737D+00 0.000000000000D+00 0.000000000000D+00
 8 23 12 01 02 45  0.0-7.348414510489D-05 0.000000000000D+00 9.000000000000D+03
    2.473651904297D+04 5.431003570557D-01 2.793967723846D-09 0.000000000000D+00
   -4.765666503906D+03-2.414894104004D-01-0.000000000000D+00 6.000000000000D+00
   -4.086880859375D+03 3.518213272095D+00 3.725290298462D-09 0.000000000000D+00
23 23 12 01 03 15  0.0-1.042913645506D-04-9.094947017729D-13 1.080000000000D+04
    4.521628417969D+03 2.102561950684D+00 3.725290298462D-09 0.000000000000D+00
   -1.025086669922D+04 2.335814476013D+00-0.000000000000D+00 3.000000000000D+00
    2.291585644531D+04 6.298933029175D-01-0.000000000000D+00 0.000000000000D+00
 7 23 12 01 03 15  0.0 7.034279406071D-05 9.094947017729D-13 1.080000000000D+04
    1.884004296875D+04-2.267313003540D+00 3.725290298462D-09 0.000000000000D+00
    3.475583007813D+03 4.383192062378D-01-1.862645149231D-09 5.000000000000D+00
    1.690880908203D+04 2.435897827148D+00 9.313225746155D-10 0.000000000000D+00
14 23 12 01 03 15  0.0 2.564396709204D-05 0.000000000000D+00 1.080000000000D+04
   -7.622295898438D+03 7.159099578857D-01 1.862645149231D-09 0.000000000000D+00
   -1.162311718750D+04-2.837707519531D+00 0.000000000000D+00-7.000000000000D+00
    2.139250878906D+04-1.288598060608D+00-9.313225746155D-10 0.000000000000D+00
22 23 12 01 03 15  0.0 9.610317647457D-05 1.818989403546D-12 1.080000000000D+04
    1.640954052734D+04 1.782384872437D+00 3.725290298462D-09 0.000000000000D+00
    5.102401855469D+03 1.866145133972D+00-1.862645149231D-09-3.000000000000D+00
    1.888690380859D+04-2.055188179016D+00 0.000000000000D+00 0.000000000000D+00
 6 23 12 01 03 15  0.0-1.399461179972D-04-9.094947017729D-13 1.080000000000D+04
    2.780806152344D+03-3.035137176514D+00 1.862645149231D-09 0.000000000000D+00
    1.061188427734D+04 8.611888885498D-01-9.313225746155D-10-4.000000000000D+00
    2.301368798828D+04-3.276824951172D-02-9.313225746155D-10 0.000000000000D+00
21 23 12 01 03 15  0.0-5.752034485340D-05-2.728484105319D-12 1.080000000000D+04
    1.870189550781D+04 6.161108016968D-01 9.313225746155D-10 0.000000000000D+00
    1.664203125000D+04 3.265619277954D-01-1.862645149231D-09 4.000000000000D+00
    4.820871093750D+03-3.525609970093D+00 9.313225746155D-10 0.000000000000D+00
 8 23 12 01 03 15  0.0-7.348414510489D-05 0.000000000000D+00 1.080000000000D+04
    2.491010498047D+04-3.447151184082D-01 3.725290298462D-09 0.000000000000D+00
   -5.110098144531D+03-1.003723144531D-01-9.313225746155D-10 6.000000000000D+00
    2.321965820313D+03 3.556576728821D+00 2.793967723846D-09 0.000000000000D+00
